[{"OBJECT_NAME":"HORS 2","OBJECT_ID":"2023-091AG","EPOCH":"2026-03-09T22:11:34.810944","MEAN_MOTION":15.2928008,"ECCENTRICITY":0.00098173,"INCLINATION":97.5195,"RA_OF_ASC_NODE":134.7443,"ARG_OF_PERICENTER":79.3164,"MEAN_ANOMALY":280.9181,"EPHEMERIS_TYPE":0,"CLASSIFICATION_TYPE":"U","NORAD_CAT_ID":57196,"ELEMENT_SET_NO":999,"REV_AT_EPOCH":14934,"BSTAR":0.00059338338,"MEAN_MOTION_DOT":0.00016821,"MEAN_MOTION_DDOT":0},{"OBJECT_NAME":"STARLINK-32769","OBJECT_ID":"2025-008R","EPOCH":"2026-03-09T22:32:12.011424","MEAN_MOTION":15.27588348,"ECCENTRICITY":0.0001602,"INCLINATION":42.9992,"RA_OF_ASC_NODE":276.4122,"ARG_OF_PERICENTER":259.1156,"MEAN_ANOMALY":100.9515,"EPHEMERIS_TYPE":0,"CLASSIFICATION_TYPE":"U","NORAD_CAT_ID":62602,"ELEMENT_SET_NO":999,"REV_AT_EPOCH":6566,"BSTAR":0.001053351,"MEAN_MOTION_DOT":0.00028845,"MEAN_MOTION_DDOT":0}]
